{
    "links": {
        "self": "http://www.neowsapp.com/rest/v1/neo/3555651?api_key=iIulBulltgU6a56xZRHN4H3l9WmuAYTsLGpBGhQ2"
    },
    "id": "3555651",
    "neo_reference_id": "3555651",
    "name": "(2011 BV10)",
    "designation": "2011 BV10",
    "nasa_jpl_url": "http://ssd.jpl.nasa.gov/sbdb.cgi?sstr=3555651",
    "absolute_magnitude_h": 24.5,
    "estimated_diameter": {
        "kilometers": {
            "estimated_diameter_min": 0.0334622374,
            "estimated_diameter_max": 0.0748238376
        },
        "meters": {
            "estimated_diameter_min": 33.4622374455,
            "estimated_diameter_max": 74.8238376074
        },
        "miles": {
            "estimated_diameter_min": 0.0207924639,
            "estimated_diameter_max": 0.0464933628
        },
        "feet": {
            "estimated_diameter_min": 109.7842471007,
            "estimated_diameter_max": 245.4850393757
        }
    },
    "is_potentially_hazardous_asteroid": false,
    "close_approach_data": [
        {
            "close_approach_date": "1924-04-26",
            "close_approach_date_full": "1924-Apr-26 14:34",
            "epoch_date_close_approach": -1441617960000,
            "relative_velocity": {
                "kilometers_per_second": "14.4929663204",
                "kilometers_per_hour": "52174.6787534443",
                "miles_per_hour": "32419.3163621054"
            },
            "miss_distance": {
                "astronomical": "0.2552954626",
                "lunar": "99.3099349514",
                "kilometers": "38191657.425624662",
                "miles": "23731195.4941258556"
            },
            "orbiting_body": "Earth"
        },
        {
            "close_approach_date": "2011-02-11",
            "close_approach_date_full": "2011-Feb-11 02:44",
            "epoch_date_close_approach": 1297392240000,
            "relative_velocity": {
                "kilometers_per_second": "8.9458315619",
                "kilometers_per_hour": "32204.9936228894",
                "miles_per_hour": "20010.9306208448"
            },
            "miss_distance": {
                "astronomical": "0.0408814237",
                "lunar": "15.9028738193",
                "kilometers": "6115773.908087519",
                "miles": "3800165.6904610022"
            },
            "orbiting_body": "Earth"
        }
    ],
    "orbital_data": {
        "orbit_id": "15",
        "orbit_determination_date": "2017-04-06 08:54:53",
        "first_observation_date": "2011-01-24",
        "last_observation_date": "2011-02-07",
        "data_arc_in_days": 14,
        "observations_used": 49,
        "orbit_uncertainty": "8",
        "minimum_orbit_intersection": ".0322376",
        "jupiter_tisserand_invariant": "3.681",
        "epoch_osculation": "2455590.5",
        "eccentricity": ".5042430149652128",
        "semi_major_axis": "1.986233103381582",
        "inclination": "6.146009845235032",
        "ascending_node_longitude": "312.9023552011118",
        "orbital_period": "1022.453934531761",
        "perihelion_distance": ".984688934908742",
        "perihelion_argument": "215.0650745497543",
        "aphelion_distance": "2.987777271854423",
        "perihelion_time": "2455624.116312234936",
        "mean_anomaly": "348.1638947283047",
        "mean_motion": ".3520941020828133",
        "equinox": "J2000",
        "orbit_class": {
            "orbit_class_type": "APO",
            "orbit_class_description": "Near-Earth asteroid orbits which cross the Earth’s orbit similar to that of 1862 Apollo",
            "orbit_class_range": "a (semi-major axis) > 1.0 AU; q (perihelion) < 1.017 AU"
        }
    },
    "is_sentry_object": false
}